EUTELSAT 8 WEST B       
1 40875U 15039B   25227.90461431 -.00000068  00000+0  00000+0 0  9991
2 40875   0.0659   6.0495 0003649 138.0279 138.1286  1.00272167 36590
EUTELSAT 9B             
1 41310U 16005A   25227.82479442  .00000059  00000+0  00000+0 0  9991
2 41310   0.0356  69.7354 0001543 109.2526  91.3820  1.00271744 35059
EUTELSAT 65 WEST A      
1 41382U 16014A   25227.86503153 -.00000279  00000+0  00000+0 0  9996
2 41382   0.0597  36.2810 0002152 108.9431  65.4807  1.00273196 34474
EUTELSAT 117 WEST B     
1 41589U 16038B   25227.74350166 -.00000014  00000+0  00000+0 0  9999
2 41589   0.0094 238.3497 0000275 188.5639  48.1264  1.00272317 33602
EUTELSAT 172B           
1 42741U 17029B   25227.85712124 -.00000009  00000+0  00000+0 0  9993
2 42741   0.0177 147.0061 0000162  79.4595 218.5890  1.00271118 30661
EUTELSAT 7C             
1 44334U 19034B   25227.75302557  .00000046  00000+0  00000+0 0  9995
2 44334   0.0736 188.8436 0003214 304.2478 109.4025  1.00270317  3771
EUTELSAT 5 WEST B       
1 44624U 19067A   25227.89905936 -.00000045  00000+0  00000+0 0  9998
2 44624   0.1073 302.4496 0003016 208.5912 132.1278  1.00270926 21372
EUTELSAT KONNECT        
1 45027U 20005B   25227.89350441  .00000046  00000+0  00000+0 0  9995
2 45027   0.0609  97.9588 0001498  89.8051 105.6120  1.00268927 21265
